CCSDS_OMM_VERS = 2.0
CREATION_DATE  = 
ORIGINATOR     = 

OBJECT_NAME    = KUIPER-00125
OBJECT_ID      = 2025-228H
CENTER_NAME    = EARTH
REF_FRAME      = TEME
TIME_SYSTEM    = UTC
MEAN_ELEMENT_THEORY = SGP/SGP4

EPOCH          = 2025-11-03T18:56:57.278112
MEAN_MOTION    = 15.34716656
ECCENTRICITY   = .0005535
INCLINATION    = 51.8800
RA_OF_ASC_NODE = 208.2396
ARG_OF_PERICENTER = 214.5832
MEAN_ANOMALY   = 145.4794

EPHEMERIS_TYPE = 0
CLASSIFICATION_TYPE = U
NORAD_CAT_ID   = 65954
ELEMENT_SET_NO = 999
REV_AT_EPOCH   = 443
BSTAR          = .60429E-3
MEAN_MOTION_DOT = .20327E-3
MEAN_MOTION_DDOT = 0

CCSDS_OMM_VERS = 2.0
CREATION_DATE  = 
ORIGINATOR     = 

OBJECT_NAME    = KUIPER-00126
OBJECT_ID      = 2025-228J
CENTER_NAME    = EARTH
REF_FRAME      = TEME
TIME_SYSTEM    = UTC
MEAN_ELEMENT_THEORY = SGP/SGP4

EPOCH          = 2025-11-03T19:02:46.351392
MEAN_MOTION    = 15.34437995
ECCENTRICITY   = .0005923
INCLINATION    = 51.8803
RA_OF_ASC_NODE = 208.2691
ARG_OF_PERICENTER = 228.4087
MEAN_ANOMALY   = 131.6391

EPHEMERIS_TYPE = 0
CLASSIFICATION_TYPE = U
NORAD_CAT_ID   = 65955
ELEMENT_SET_NO = 999
REV_AT_EPOCH   = 443
BSTAR          = .49801E-3
MEAN_MOTION_DOT = .16527E-3
MEAN_MOTION_DDOT = 0

CCSDS_OMM_VERS = 2.0
CREATION_DATE  = 
ORIGINATOR     = 

OBJECT_NAME    = KUIPER-00127
OBJECT_ID      = 2025-228K
CENTER_NAME    = EARTH
REF_FRAME      = TEME
TIME_SYSTEM    = UTC
MEAN_ELEMENT_THEORY = SGP/SGP4

EPOCH          = 2025-11-03T18:50:43.166112
MEAN_MOTION    = 15.35030900
ECCENTRICITY   = .0005892
INCLINATION    = 51.8806
RA_OF_ASC_NODE = 208.2155
ARG_OF_PERICENTER = 205.6130
MEAN_ANOMALY   = 154.4565

EPHEMERIS_TYPE = 0
CLASSIFICATION_TYPE = U
NORAD_CAT_ID   = 65956
ELEMENT_SET_NO = 999
REV_AT_EPOCH   = 443
BSTAR          = .56483E-3
MEAN_MOTION_DOT = .19166E-3
MEAN_MOTION_DDOT = 0

CCSDS_OMM_VERS = 2.0
CREATION_DATE  = 
ORIGINATOR     = 

OBJECT_NAME    = KUIPER-00128
OBJECT_ID      = 2025-228L
CENTER_NAME    = EARTH
REF_FRAME      = TEME
TIME_SYSTEM    = UTC
MEAN_ELEMENT_THEORY = SGP/SGP4

EPOCH          = 2025-11-03T18:54:59.243616
MEAN_MOTION    = 15.34824061
ECCENTRICITY   = .0005663
INCLINATION    = 51.8809
RA_OF_ASC_NODE = 208.2385
ARG_OF_PERICENTER = 210.1527
MEAN_ANOMALY   = 149.9134

EPHEMERIS_TYPE = 0
CLASSIFICATION_TYPE = U
NORAD_CAT_ID   = 65957
ELEMENT_SET_NO = 999
REV_AT_EPOCH   = 443
BSTAR          = .89022E-3
MEAN_MOTION_DOT = .3027E-3
MEAN_MOTION_DDOT = 0

CCSDS_OMM_VERS = 2.0
CREATION_DATE  = 
ORIGINATOR     = 

OBJECT_NAME    = KUIPER-00129
OBJECT_ID      = 2025-228M
CENTER_NAME    = EARTH
REF_FRAME      = TEME
TIME_SYSTEM    = UTC
MEAN_ELEMENT_THEORY = SGP/SGP4

EPOCH          = 2025-11-03T18:54:20.860416
MEAN_MOTION    = 15.34829048
ECCENTRICITY   = .0005808
INCLINATION    = 51.8805
RA_OF_ASC_NODE = 208.2343
ARG_OF_PERICENTER = 204.4104
MEAN_ANOMALY   = 155.6608

EPHEMERIS_TYPE = 0
CLASSIFICATION_TYPE = U
NORAD_CAT_ID   = 65958
ELEMENT_SET_NO = 999
REV_AT_EPOCH   = 443
BSTAR          = .54852E-3
MEAN_MOTION_DOT = .18478E-3
MEAN_MOTION_DDOT = 0

CCSDS_OMM_VERS = 2.0
CREATION_DATE  = 
ORIGINATOR     = 

OBJECT_NAME    = KUIPER-00130
OBJECT_ID      = 2025-228N
CENTER_NAME    = EARTH
REF_FRAME      = TEME
TIME_SYSTEM    = UTC
MEAN_ELEMENT_THEORY = SGP/SGP4

EPOCH          = 2025-11-03T18:58:48.333216
MEAN_MOTION    = 15.34651759
ECCENTRICITY   = .0005155
INCLINATION    = 51.8800
RA_OF_ASC_NODE = 208.2489
ARG_OF_PERICENTER = 221.4002
MEAN_ANOMALY   = 138.6593

EPHEMERIS_TYPE = 0
CLASSIFICATION_TYPE = U
NORAD_CAT_ID   = 65959
ELEMENT_SET_NO = 999
REV_AT_EPOCH   = 443
BSTAR          = .11019E-2
MEAN_MOTION_DOT = .37384E-3
MEAN_MOTION_DDOT = 0

CCSDS_OMM_VERS = 2.0
CREATION_DATE  = 
ORIGINATOR     = 

OBJECT_NAME    = KUIPER-00134
OBJECT_ID      = 2025-228P
CENTER_NAME    = EARTH
REF_FRAME      = TEME
TIME_SYSTEM    = UTC
MEAN_ELEMENT_THEORY = SGP/SGP4

EPOCH          = 2025-11-03T19:00:48.796416
MEAN_MOTION    = 15.34534198
ECCENTRICITY   = .0005141
INCLINATION    = 51.8797
RA_OF_ASC_NODE = 208.2565
ARG_OF_PERICENTER = 224.6761
MEAN_ANOMALY   = 135.3810

EPHEMERIS_TYPE = 0
CLASSIFICATION_TYPE = U
NORAD_CAT_ID   = 65960
ELEMENT_SET_NO = 999
REV_AT_EPOCH   = 443
BSTAR          = .59881E-3
MEAN_MOTION_DOT = .20019E-3
MEAN_MOTION_DDOT = 0

CCSDS_OMM_VERS = 2.0
CREATION_DATE  = 
ORIGINATOR     = 

OBJECT_NAME    = KUIPER-00135
OBJECT_ID      = 2025-228Q
CENTER_NAME    = EARTH
REF_FRAME      = TEME
TIME_SYSTEM    = UTC
MEAN_ELEMENT_THEORY = SGP/SGP4

EPOCH          = 2025-11-03T19:00:18.385344
MEAN_MOTION    = 15.34532077
ECCENTRICITY   = .000505
INCLINATION    = 51.8811
RA_OF_ASC_NODE = 208.2633
ARG_OF_PERICENTER = 212.9957
MEAN_ANOMALY   = 147.0714

EPHEMERIS_TYPE = 0
CLASSIFICATION_TYPE = U
NORAD_CAT_ID   = 65961
ELEMENT_SET_NO = 999
REV_AT_EPOCH   = 443
BSTAR          = .10696E-2
MEAN_MOTION_DOT = .3613E-3
MEAN_MOTION_DDOT = 0

CCSDS_OMM_VERS = 2.0
CREATION_DATE  = 
ORIGINATOR     = 

OBJECT_NAME    = KUIPER-00136
OBJECT_ID      = 2025-228R
CENTER_NAME    = EARTH
REF_FRAME      = TEME
TIME_SYSTEM    = UTC
MEAN_ELEMENT_THEORY = SGP/SGP4

EPOCH          = 2025-11-03T18:52:08.962176
MEAN_MOTION    = 15.34913609
ECCENTRICITY   = .0005789
INCLINATION    = 51.8807
RA_OF_ASC_NODE = 208.2248
ARG_OF_PERICENTER = 207.7745
MEAN_ANOMALY   = 152.2932

EPHEMERIS_TYPE = 0
CLASSIFICATION_TYPE = U
NORAD_CAT_ID   = 65962
ELEMENT_SET_NO = 999
REV_AT_EPOCH   = 443
BSTAR          = .76949E-3
MEAN_MOTION_DOT = .26175E-3
MEAN_MOTION_DDOT = 0

CCSDS_OMM_VERS = 2.0
CREATION_DATE  = 
ORIGINATOR     = 

OBJECT_NAME    = KUIPER-00137
OBJECT_ID      = 2025-228S
CENTER_NAME    = EARTH
REF_FRAME      = TEME
TIME_SYSTEM    = UTC
MEAN_ELEMENT_THEORY = SGP/SGP4

EPOCH          = 2025-11-03T18:59:20.436000
MEAN_MOTION    = 15.34566790
ECCENTRICITY   = .0004912
INCLINATION    = 51.8809
RA_OF_ASC_NODE = 208.2584
ARG_OF_PERICENTER = 220.5078
MEAN_ANOMALY   = 139.5542

EPHEMERIS_TYPE = 0
CLASSIFICATION_TYPE = U
NORAD_CAT_ID   = 65963
ELEMENT_SET_NO = 999
REV_AT_EPOCH   = 443
BSTAR          = .93871E-3
MEAN_MOTION_DOT = .3168E-3
MEAN_MOTION_DDOT = 0

CCSDS_OMM_VERS = 2.0
CREATION_DATE  = 
ORIGINATOR     = 

OBJECT_NAME    = KUIPER-00138
OBJECT_ID      = 2025-228T
CENTER_NAME    = EARTH
REF_FRAME      = TEME
TIME_SYSTEM    = UTC
MEAN_ELEMENT_THEORY = SGP/SGP4

EPOCH          = 2025-11-03T19:02:44.446272
MEAN_MOTION    = 15.34312803
ECCENTRICITY   = .0006145
INCLINATION    = 51.8800
RA_OF_ASC_NODE = 208.2675
ARG_OF_PERICENTER = 231.9324
MEAN_ANOMALY   = 128.1108

EPHEMERIS_TYPE = 0
CLASSIFICATION_TYPE = U
NORAD_CAT_ID   = 65964
ELEMENT_SET_NO = 999
REV_AT_EPOCH   = 443
BSTAR          = .27148E-3
MEAN_MOTION_DOT = .8791E-4
MEAN_MOTION_DDOT = 0

CCSDS_OMM_VERS = 2.0
CREATION_DATE  = 
ORIGINATOR     = 

OBJECT_NAME    = KUIPER-00140
OBJECT_ID      = 2025-228U
CENTER_NAME    = EARTH
REF_FRAME      = TEME
TIME_SYSTEM    = UTC
MEAN_ELEMENT_THEORY = SGP/SGP4

EPOCH          = 2025-11-03T19:03:53.326080
MEAN_MOTION    = 15.34379591
ECCENTRICITY   = .0005547
INCLINATION    = 51.8804
RA_OF_ASC_NODE = 208.2762
ARG_OF_PERICENTER = 232.4091
MEAN_ANOMALY   = 127.6391

EPHEMERIS_TYPE = 0
CLASSIFICATION_TYPE = U
NORAD_CAT_ID   = 65965
ELEMENT_SET_NO = 999
REV_AT_EPOCH   = 443
BSTAR          = .88108E-3
MEAN_MOTION_DOT = .29528E-3
MEAN_MOTION_DDOT = 0

