KUIPER-00125            
1 65954U 25228H   25307.78955183  .00020327  00000+0  60429-3 0  9998
2 65954  51.8800 208.2396 0005535 214.5832 145.4794 15.34716656  4435
KUIPER-00126            
1 65955U 25228J   25307.79359203  .00016527  00000+0  49801-3 0  9999
2 65955  51.8803 208.2691 0005923 228.4087 131.6391 15.34437995  4430
KUIPER-00127            
1 65956U 25228K   25307.78522183  .00019166  00000+0  56483-3 0  9994
2 65956  51.8806 208.2155 0005892 205.6130 154.4565 15.35030900  4432
KUIPER-00128            
1 65957U 25228L   25307.78818569  .00030270  00000+0  89022-3 0  9995
2 65957  51.8809 208.2385 0005663 210.1527 149.9134 15.34824061  4437
KUIPER-00129            
1 65958U 25228M   25307.78774144  .00018478  00000+0  54852-3 0  9995
2 65958  51.8805 208.2343 0005808 204.4104 155.6608 15.34829048  4436
KUIPER-00130            
1 65959U 25228N   25307.79083719  .00037384  00000+0  11019-2 0  9992
2 65959  51.8800 208.2489 0005155 221.4002 138.6593 15.34651759  4430
KUIPER-00134            
1 65960U 25228P   25307.79223144  .00020019  00000+0  59881-3 0  9999
2 65960  51.8797 208.2565 0005141 224.6761 135.3810 15.34534198  4437
KUIPER-00135            
1 65961U 25228Q   25307.79187946  .00036130  00000+0  10696-2 0  9990
2 65961  51.8811 208.2633 0005050 212.9957 147.0714 15.34532077  4434
KUIPER-00136            
1 65962U 25228R   25307.78621484  .00026175  00000+0  76949-3 0  9992
2 65962  51.8807 208.2248 0005789 207.7745 152.2932 15.34913609  4432
KUIPER-00137            
1 65963U 25228S   25307.79120875  .00031680  00000+0  93871-3 0  9992
2 65963  51.8809 208.2584 0004912 220.5078 139.5542 15.34566790  4437
KUIPER-00138            
1 65964U 25228T   25307.79356998  .00008791  00000+0  27148-3 0  9991
2 65964  51.8800 208.2675 0006145 231.9324 128.1108 15.34312803  4436
KUIPER-00140            
1 65965U 25228U   25307.79436720  .00029528  00000+0  88108-3 0  9998
2 65965  51.8804 208.2762 0005547 232.4091 127.6391 15.34379591  4435
